[{"OBJECT_NAME":"ISS (ZARYA)","OBJECT_ID":"1998-067A","EPOCH":"2026-01-14T15:04:24.142944","MEAN_MOTION":15.49289811,"ECCENTRICITY":0.00077638,"INCLINATION":51.6333,"RA_OF_ASC_NODE":339.6562,"ARG_OF_PERICENTER":17.9854,"MEAN_ANOMALY":342.1408,"EPHEMERIS_TYPE":0,"CLASSIFICATION_TYPE":"U","NORAD_CAT_ID":25544,"ELEMENT_SET_NO":999,"REV_AT_EPOCH":54794,"BSTAR":0.00013043682,"MEAN_MOTION_DOT":6.818e-5,"MEAN_MOTION_DDOT":0},{"OBJECT_NAME":"CSS (TIANHE)","OBJECT_ID":"2021-035A","EPOCH":"2026-01-14T11:53:18.953664","MEAN_MOTION":15.6050506,"ECCENTRICITY":0.00114215,"INCLINATION":41.465,"RA_OF_ASC_NODE":177.6413,"ARG_OF_PERICENTER":283.7377,"MEAN_ANOMALY":76.219,"EPHEMERIS_TYPE":0,"CLASSIFICATION_TYPE":"U","NORAD_CAT_ID":48274,"ELEMENT_SET_NO":999,"REV_AT_EPOCH":26914,"BSTAR":0.00015080508,"MEAN_MOTION_DOT":0.00012503,"MEAN_MOTION_DDOT":0},{"OBJECT_NAME":"ISS (NAUKA)","OBJECT_ID":"2021-066A","EPOCH":"2026-01-14T15:04:24.142944","MEAN_MOTION":15.49289811,"ECCENTRICITY":0.00077638,"INCLINATION":51.6333,"RA_OF_ASC_NODE":339.6562,"ARG_OF_PERICENTER":17.9854,"MEAN_ANOMALY":342.1408,"EPHEMERIS_TYPE":0,"CLASSIFICATION_TYPE":"U","NORAD_CAT_ID":49044,"ELEMENT_SET_NO":999,"REV_AT_EPOCH":23044,"BSTAR":0.00013043682,"MEAN_MOTION_DOT":6.818e-5,"MEAN_MOTION_DDOT":0},{"OBJECT_NAME":"FREGAT DEB","OBJECT_ID":"2011-037PF","EPOCH":"2026-01-14T06:30:34.310016","MEAN_MOTION":12.35731849,"ECCENTRICITY":0.08912741,"INCLINATION":51.6098,"RA_OF_ASC_NODE":103.1664,"ARG_OF_PERICENTER":295.6133,"MEAN_ANOMALY":55.526,"EPHEMERIS_TYPE":0,"CLASSIFICATION_TYPE":"U","NORAD_CAT_ID":49271,"ELEMENT_SET_NO":999,"REV_AT_EPOCH":20595,"BSTAR":0.062052352,"MEAN_MOTION_DOT":0.00031158,"MEAN_MOTION_DDOT":0},{"OBJECT_NAME":"CSS (WENTIAN)","OBJECT_ID":"2022-085A","EPOCH":"2026-01-14T11:53:18.953664","MEAN_MOTION":15.6050506,"ECCENTRICITY":0.00114215,"INCLINATION":41.465,"RA_OF_ASC_NODE":177.6413,"ARG_OF_PERICENTER":283.7377,"MEAN_ANOMALY":76.219,"EPHEMERIS_TYPE":0,"CLASSIFICATION_TYPE":"U","NORAD_CAT_ID":53239,"ELEMENT_SET_NO":999,"REV_AT_EPOCH":17384,"BSTAR":0.00015080508,"MEAN_MOTION_DOT":0.00012503,"MEAN_MOTION_DDOT":0},{"OBJECT_NAME":"CSS (MENGTIAN)","OBJECT_ID":"2022-143A","EPOCH":"2026-01-14T11:53:18.953664","MEAN_MOTION":15.6050506,"ECCENTRICITY":0.00114215,"INCLINATION":41.465,"RA_OF_ASC_NODE":177.6413,"ARG_OF_PERICENTER":283.7377,"MEAN_ANOMALY":76.219,"EPHEMERIS_TYPE":0,"CLASSIFICATION_TYPE":"U","NORAD_CAT_ID":54216,"ELEMENT_SET_NO":999,"REV_AT_EPOCH":15864,"BSTAR":0.00015080508,"MEAN_MOTION_DOT":0.00012503,"MEAN_MOTION_DDOT":0},{"OBJECT_NAME":"SHENZHOU-20 (SZ-20)","OBJECT_ID":"2025-082A","EPOCH":"2026-01-14T11:53:18.953664","MEAN_MOTION":15.6050506,"ECCENTRICITY":0.00114215,"INCLINATION":41.465,"RA_OF_ASC_NODE":177.6413,"ARG_OF_PERICENTER":283.7377,"MEAN_ANOMALY":76.219,"EPHEMERIS_TYPE":0,"CLASSIFICATION_TYPE":"U","NORAD_CAT_ID":63632,"ELEMENT_SET_NO":999,"REV_AT_EPOCH":25530,"BSTAR":0.00015080508,"MEAN_MOTION_DOT":0.00012503,"MEAN_MOTION_DDOT":0},{"OBJECT_NAME":"PROGRESS-MS 31","OBJECT_ID":"2025-146A","EPOCH":"2026-01-14T15:04:24.142944","MEAN_MOTION":15.49289811,"ECCENTRICITY":0.00077638,"INCLINATION":51.6333,"RA_OF_ASC_NODE":339.6562,"ARG_OF_PERICENTER":17.9854,"MEAN_ANOMALY":342.1408,"EPHEMERIS_TYPE":0,"CLASSIFICATION_TYPE":"U","NORAD_CAT_ID":64751,"ELEMENT_SET_NO":999,"REV_AT_EPOCH":675,"BSTAR":0.00013043682,"MEAN_MOTION_DOT":6.818e-5,"MEAN_MOTION_DDOT":0},{"OBJECT_NAME":"TIANZHOU-9","OBJECT_ID":"2025-149A","EPOCH":"2026-01-14T11:53:18.953664","MEAN_MOTION":15.6050506,"ECCENTRICITY":0.00114215,"INCLINATION":41.465,"RA_OF_ASC_NODE":177.6413,"ARG_OF_PERICENTER":283.7377,"MEAN_ANOMALY":76.219,"EPHEMERIS_TYPE":0,"CLASSIFICATION_TYPE":"U","NORAD_CAT_ID":64786,"ELEMENT_SET_NO":999,"REV_AT_EPOCH":25530,"BSTAR":0.00015080508,"MEAN_MOTION_DOT":0.00012503,"MEAN_MOTION_DDOT":0},{"OBJECT_NAME":"CREW DRAGON 11","OBJECT_ID":"2025-166A","EPOCH":"2026-01-14T15:04:24.142944","MEAN_MOTION":15.49289811,"ECCENTRICITY":0.00077638,"INCLINATION":51.6333,"RA_OF_ASC_NODE":339.6562,"ARG_OF_PERICENTER":17.9854,"MEAN_ANOMALY":342.1408,"EPHEMERIS_TYPE":0,"CLASSIFICATION_TYPE":"U","NORAD_CAT_ID":65077,"ELEMENT_SET_NO":999,"REV_AT_EPOCH":214,"BSTAR":0.00013043682,"MEAN_MOTION_DOT":6.818e-5,"MEAN_MOTION_DDOT":0},{"OBJECT_NAME":"DRAGON CRS-33","OBJECT_ID":"2025-186A","EPOCH":"2026-01-14T15:04:24.142944","MEAN_MOTION":15.49289811,"ECCENTRICITY":0.00077638,"INCLINATION":51.6333,"RA_OF_ASC_NODE":339.6562,"ARG_OF_PERICENTER":17.9854,"MEAN_ANOMALY":342.1408,"EPHEMERIS_TYPE":0,"CLASSIFICATION_TYPE":"U","NORAD_CAT_ID":65304,"ELEMENT_SET_NO":999,"REV_AT_EPOCH":11,"BSTAR":0.00013043682,"MEAN_MOTION_DOT":6.818e-5,"MEAN_MOTION_DDOT":0},{"OBJECT_NAME":"PROGRESS-MS 32","OBJECT_ID":"2025-204A","EPOCH":"2026-01-14T15:04:24.142944","MEAN_MOTION":15.49289811,"ECCENTRICITY":0.00077638,"INCLINATION":51.6333,"RA_OF_ASC_NODE":339.6562,"ARG_OF_PERICENTER":17.9854,"MEAN_ANOMALY":342.1408,"EPHEMERIS_TYPE":0,"CLASSIFICATION_TYPE":"U","NORAD_CAT_ID":65586,"ELEMENT_SET_NO":999,"REV_AT_EPOCH":27,"BSTAR":0.00013043682,"MEAN_MOTION_DOT":6.818e-5,"MEAN_MOTION_DDOT":0},{"OBJECT_NAME":"CYGNUS NG-23","OBJECT_ID":"2025-208A","EPOCH":"2026-01-14T15:04:24.142944","MEAN_MOTION":15.49289811,"ECCENTRICITY":0.00077638,"INCLINATION":51.6333,"RA_OF_ASC_NODE":339.6562,"ARG_OF_PERICENTER":17.9854,"MEAN_ANOMALY":342.1408,"EPHEMERIS_TYPE":0,"CLASSIFICATION_TYPE":"U","NORAD_CAT_ID":65616,"ELEMENT_SET_NO":999,"REV_AT_EPOCH":22,"BSTAR":0.00013043682,"MEAN_MOTION_DOT":6.818e-5,"MEAN_MOTION_DDOT":0},{"OBJECT_NAME":"DRAGONFLY","OBJECT_ID":"1998-067XH","EPOCH":"2026-01-14T03:23:55.180896","MEAN_MOTION":15.88809405,"ECCENTRICITY":0.00079887,"INCLINATION":51.621,"RA_OF_ASC_NODE":328.0787,"ARG_OF_PERICENTER":107.861,"MEAN_ANOMALY":252.3267,"EPHEMERIS_TYPE":0,"CLASSIFICATION_TYPE":"U","NORAD_CAT_ID":65729,"ELEMENT_SET_NO":999,"REV_AT_EPOCH":1828,"BSTAR":0.0010228988,"MEAN_MOTION_DOT":0.0030644,"MEAN_MOTION_DDOT":0},{"OBJECT_NAME":"1998-067XK","OBJECT_ID":"1998-067XK","EPOCH":"2026-01-14T06:32:38.688864","MEAN_MOTION":15.73668329,"ECCENTRICITY":0.00048309,"INCLINATION":51.6282,"RA_OF_ASC_NODE":331.2726,"ARG_OF_PERICENTER":79.0136,"MEAN_ANOMALY":281.1406,"EPHEMERIS_TYPE":0,"CLASSIFICATION_TYPE":"U","NORAD_CAT_ID":65731,"ELEMENT_SET_NO":999,"REV_AT_EPOCH":1825,"BSTAR":0.00071072875,"MEAN_MOTION_DOT":0.00102625,"MEAN_MOTION_DDOT":0},{"OBJECT_NAME":"RSP-03","OBJECT_ID":"1998-067XL","EPOCH":"2026-01-14T06:03:49.471488","MEAN_MOTION":15.79933026,"ECCENTRICITY":0.00058649,"INCLINATION":51.6257,"RA_OF_ASC_NODE":329.6097,"ARG_OF_PERICENTER":87.9483,"MEAN_ANOMALY":272.219,"EPHEMERIS_TYPE":0,"CLASSIFICATION_TYPE":"U","NORAD_CAT_ID":65732,"ELEMENT_SET_NO":999,"REV_AT_EPOCH":1828,"BSTAR":0.00086152727,"MEAN_MOTION_DOT":0.00165783,"MEAN_MOTION_DDOT":0}]
