ISS (ZARYA)             
1 25544U 98067A   26014.62805721  .00006818  00000+0  13044-3 0  9991
2 25544  51.6333 339.6562 0007763  17.9854 342.1408 15.49289811547943
CSS (TIANHE)            
1 48274U 21035A   26014.49535826  .00012503  00000+0  15081-3 0  9999
2 48274  41.4650 177.6413 0011421 283.7377  76.2190 15.60505060269147
ISS (NAUKA)             
1 49044U 21066A   26014.62805721  .00006818  00000+0  13044-3 0  9997
2 49044  51.6333 339.6562 0007763  17.9854 342.1408 15.49289811230448
FREGAT DEB              
1 49271U 11037PF  26014.27123044  .00031158  00000+0  62052-1 0  9994
2 49271  51.6098 103.1664 0891274 295.6133  55.5260 12.35731849205952
CSS (WENTIAN)           
1 53239U 22085A   26014.49535826  .00012503  00000+0  15081-3 0  9992
2 53239  41.4650 177.6413 0011421 283.7377  76.2190 15.60505060173845
CSS (MENGTIAN)          
1 54216U 22143A   26014.49535826  .00012503  00000+0  15081-3 0  9993
2 54216  41.4650 177.6413 0011421 283.7377  76.2190 15.60505060158642
SHENZHOU-20 (SZ-20)     
1 63632U 25082A   26014.49535826  .00012503  00000+0  15081-3 0  9990
2 63632  41.4650 177.6413 0011421 283.7377  76.2190 15.60505060255305
PROGRESS-MS 31          
1 64751U 25146A   26014.62805721  .00006818  00000+0  13044-3 0  9992
2 64751  51.6333 339.6562 0007763  17.9854 342.1408 15.49289811  6755
TIANZHOU-9              
1 64786U 25149A   26014.49535826  .00012503  00000+0  15081-3 0  9995
2 64786  41.4650 177.6413 0011421 283.7377  76.2190 15.60505060255306
CREW DRAGON 11          
1 65077U 25166A   26014.62805721  .00006818  00000+0  13044-3 0  9996
2 65077  51.6333 339.6562 0007763  17.9854 342.1408 15.49289811  2146
DRAGON CRS-33           
1 65304U 25186A   26014.62805721  .00006818  00000+0  13044-3 0  9991
2 65304  51.6333 339.6562 0007763  17.9854 342.1408 15.49289811   114
PROGRESS-MS 32          
1 65586U 25204A   26014.62805721  .00006818  00000+0  13044-3 0  9994
2 65586  51.6333 339.6562 0007763  17.9854 342.1408 15.49289811   273
CYGNUS NG-23            
1 65616U 25208A   26014.62805721  .00006818  00000+0  13044-3 0  9992
2 65616  51.6333 339.6562 0007763  17.9854 342.1408 15.49289811   222
DRAGONFLY               
1 65729U 98067XH  26014.14161089  .00306440  00000+0  10229-2 0  9994
2 65729  51.6210 328.0787 0007988 107.8610 252.3267 15.88809405 18280
1998-067XK              
1 65731U 98067XK  26014.27267001  .00102625  00000+0  71073-3 0  9996
2 65731  51.6282 331.2726 0004830  79.0136 281.1406 15.73668329 18251
RSP-03                  
1 65732U 98067XL  26014.25265592  .00165783  00000+0  86153-3 0  9997
2 65732  51.6257 329.6097 0005864  87.9483 272.2190 15.79933026 18286
